PERSEUS-M2              
1 40037U 14033AD  17345.79537143  .00000151  00000-0  23340-4 0  9997
2 40037  97.9053 253.5581 0015855  84.3234 275.9789 14.86302230188199
